ONEWEB-0657             
1 55818U 23029Y   25272.79393861  .00000053  00000+0  99583-4 0  9992
2 55818  87.9274 356.7808 0002629 101.8703 258.2725 13.19725633124561
ONEWEB-0658             
1 55819U 23029Z   25272.78918010  .00000104  00000+0  22729-3 0  9995
2 55819  87.9291 356.7218 0001736 115.8466 244.2846 13.19728345124578
ONEWEB-0660             
1 55820U 23029AA  25272.72771375  .00000251  00000+0  64162-3 0  9992
2 55820  87.9078 341.5584 0001519  99.6798 260.4503 13.14501465125182
ONEWEB-0661             
1 55821U 23029AB  25272.61036990 -.00000121  00000+0 -36067-3 0  9999
2 55821  87.9073 341.6526 0001513  95.2892 264.8411 13.14503162125155
ONEWEB-0662             
1 55822U 23029AC  25272.72136634  .00000345  00000+0  89638-3 0  9996
2 55822  87.9069 341.6357 0001466 100.8327 259.2968 13.14502541125218
ONEWEB-0663             
1 55823U 23029AD  25272.19742445 -.00000009  00000+0 -53511-4 0  9992
2 55823  87.9267 326.5257 0001448 103.2657 256.8638 13.20847250126699
ONEWEB-0664             
1 55824U 23029AE  25272.58810387 -.00000070  00000+0 -20351-3 0  9990
2 55824  87.9246 326.4655 0001956  91.5299 268.6058 13.20772629126743
ONEWEB-0665             
1 55825U 23029AF  25272.60720042 -.00000145  00000+0 -42539-3 0  9997
2 55825  87.9074 341.6293 0001563 103.6835 256.4469 13.14503645125175
ONEWEB-0666             
1 55826U 23029AG  25272.58178757  .00000112  00000+0  24281-3 0  9991
2 55826  87.9248 326.4549 0002624  95.9073 264.2359 13.20773094126754
ONEWEB-0667             
1 55827U 23029AH  25272.19669257  .00000016  00000+0  64268-5 0  9993
2 55827  87.9251 326.4596 0001636  92.8759 267.2561 13.20772118126697
ONEWEB-0669             
1 55828U 23029AJ  25272.64650882  .00000139  00000+0  30995-3 0  9992
2 55828  87.9248 326.4098 0002183  78.1543 281.9835 13.20771518126754
ONEWEB-0670             
1 55829U 23029AK  25272.73721906  .00000190  00000+0  47683-3 0  9998
2 55829  87.9074 341.6229 0001481  87.9021 272.2278 13.14505309125216
ONEWEB-0671             
1 55830U 23029AL  25272.78444220  .00000088  00000+0  18798-3 0  9997
2 55830  87.9275 356.7757 0001603  96.9471 263.1844 13.19725501124556
ONEWEB-0672             
1 55831U 23029AM  25272.64176668  .00000133  00000+0  29408-3 0  9992
2 55831  87.9243 326.3932 0002132  93.8115 266.3262 13.20771012126752
ONEWEB-0673             
1 55832U 23029AN  25272.76075274  .00000058  00000+0  11134-3 0  9990
2 55832  87.9294 356.7487 0001783 107.5593 252.5735 13.19726383124552
ONEWEB-0674             
1 55833U 23029AP  25272.62939919  .00000127  00000+0  30911-3 0  9992
2 55833  87.9068 341.6268 0001470  85.7181 274.4117 13.14502906125180
ONEWEB-0675             
1 55834U 23029AQ  25272.77655016  .00000119  00000+0  26587-3 0  9997
2 55834  87.9277 356.7873 0002121 105.3644 254.7723 13.19727294124579
