[{"OBJECT_NAME":"ONEWEB-0657","OBJECT_ID":"2023-029Y","EPOCH":"2025-09-29T19:03:16.295904","MEAN_MOTION":13.19725633,"ECCENTRICITY":0.0002629,"INCLINATION":87.9274,"RA_OF_ASC_NODE":356.7808,"ARG_OF_PERICENTER":101.8703,"MEAN_ANOMALY":258.2725,"EPHEMERIS_TYPE":0,"CLASSIFICATION_TYPE":"U","NORAD_CAT_ID":55818,"ELEMENT_SET_NO":999,"REV_AT_EPOCH":12456,"BSTAR":9.9583e-5,"MEAN_MOTION_DOT":5.3e-7,"MEAN_MOTION_DDOT":0},{"OBJECT_NAME":"ONEWEB-0658","OBJECT_ID":"2023-029Z","EPOCH":"2025-09-29T18:56:25.160640","MEAN_MOTION":13.19728345,"ECCENTRICITY":0.0001736,"INCLINATION":87.9291,"RA_OF_ASC_NODE":356.7218,"ARG_OF_PERICENTER":115.8466,"MEAN_ANOMALY":244.2846,"EPHEMERIS_TYPE":0,"CLASSIFICATION_TYPE":"U","NORAD_CAT_ID":55819,"ELEMENT_SET_NO":999,"REV_AT_EPOCH":12457,"BSTAR":0.00022729,"MEAN_MOTION_DOT":1.04e-6,"MEAN_MOTION_DDOT":0},{"OBJECT_NAME":"ONEWEB-0660","OBJECT_ID":"2023-029AA","EPOCH":"2025-09-29T17:27:54.468000","MEAN_MOTION":13.14501465,"ECCENTRICITY":0.0001519,"INCLINATION":87.9078,"RA_OF_ASC_NODE":341.5584,"ARG_OF_PERICENTER":99.6798,"MEAN_ANOMALY":260.4503,"EPHEMERIS_TYPE":0,"CLASSIFICATION_TYPE":"U","NORAD_CAT_ID":55820,"ELEMENT_SET_NO":999,"REV_AT_EPOCH":12518,"BSTAR":0.00064162,"MEAN_MOTION_DOT":2.51e-6,"MEAN_MOTION_DDOT":0},{"OBJECT_NAME":"ONEWEB-0661","OBJECT_ID":"2023-029AB","EPOCH":"2025-09-29T14:38:55.959360","MEAN_MOTION":13.14503162,"ECCENTRICITY":0.0001513,"INCLINATION":87.9073,"RA_OF_ASC_NODE":341.6526,"ARG_OF_PERICENTER":95.2892,"MEAN_ANOMALY":264.8411,"EPHEMERIS_TYPE":0,"CLASSIFICATION_TYPE":"U","NORAD_CAT_ID":55821,"ELEMENT_SET_NO":999,"REV_AT_EPOCH":12515,"BSTAR":-0.00036067,"MEAN_MOTION_DOT":-1.21e-6,"MEAN_MOTION_DDOT":0},{"OBJECT_NAME":"ONEWEB-0662","OBJECT_ID":"2023-029AC","EPOCH":"2025-09-29T17:18:46.051776","MEAN_MOTION":13.14502541,"ECCENTRICITY":0.0001466,"INCLINATION":87.9069,"RA_OF_ASC_NODE":341.6357,"ARG_OF_PERICENTER":100.8327,"MEAN_ANOMALY":259.2968,"EPHEMERIS_TYPE":0,"CLASSIFICATION_TYPE":"U","NORAD_CAT_ID":55822,"ELEMENT_SET_NO":999,"REV_AT_EPOCH":12521,"BSTAR":0.00089638,"MEAN_MOTION_DOT":3.45e-6,"MEAN_MOTION_DDOT":0},{"OBJECT_NAME":"ONEWEB-0663","OBJECT_ID":"2023-029AD","EPOCH":"2025-09-29T04:44:17.472480","MEAN_MOTION":13.2084725,"ECCENTRICITY":0.00014484,"INCLINATION":87.9267,"RA_OF_ASC_NODE":326.5257,"ARG_OF_PERICENTER":103.2657,"MEAN_ANOMALY":256.8638,"EPHEMERIS_TYPE":0,"CLASSIFICATION_TYPE":"U","NORAD_CAT_ID":55823,"ELEMENT_SET_NO":999,"REV_AT_EPOCH":12669,"BSTAR":-5.3511209e-5,"MEAN_MOTION_DOT":-9.0e-8,"MEAN_MOTION_DDOT":0},{"OBJECT_NAME":"ONEWEB-0664","OBJECT_ID":"2023-029AE","EPOCH":"2025-09-29T14:06:52.174368","MEAN_MOTION":13.20772629,"ECCENTRICITY":0.0001956,"INCLINATION":87.9246,"RA_OF_ASC_NODE":326.4655,"ARG_OF_PERICENTER":91.5299,"MEAN_ANOMALY":268.6058,"EPHEMERIS_TYPE":0,"CLASSIFICATION_TYPE":"U","NORAD_CAT_ID":55824,"ELEMENT_SET_NO":999,"REV_AT_EPOCH":12674,"BSTAR":-0.00020351,"MEAN_MOTION_DOT":-7.0e-7,"MEAN_MOTION_DDOT":0},{"OBJECT_NAME":"ONEWEB-0665","OBJECT_ID":"2023-029AF","EPOCH":"2025-09-29T14:34:22.116288","MEAN_MOTION":13.14503645,"ECCENTRICITY":0.0001563,"INCLINATION":87.9074,"RA_OF_ASC_NODE":341.6293,"ARG_OF_PERICENTER":103.6835,"MEAN_ANOMALY":256.4469,"EPHEMERIS_TYPE":0,"CLASSIFICATION_TYPE":"U","NORAD_CAT_ID":55825,"ELEMENT_SET_NO":999,"REV_AT_EPOCH":12517,"BSTAR":-0.00042539,"MEAN_MOTION_DOT":-1.45e-6,"MEAN_MOTION_DDOT":0},{"OBJECT_NAME":"ONEWEB-0666","OBJECT_ID":"2023-029AG","EPOCH":"2025-09-29T13:57:46.446048","MEAN_MOTION":13.20773094,"ECCENTRICITY":0.0002624,"INCLINATION":87.9248,"RA_OF_ASC_NODE":326.4549,"ARG_OF_PERICENTER":95.9073,"MEAN_ANOMALY":264.2359,"EPHEMERIS_TYPE":0,"CLASSIFICATION_TYPE":"U","NORAD_CAT_ID":55826,"ELEMENT_SET_NO":999,"REV_AT_EPOCH":12675,"BSTAR":0.00024281,"MEAN_MOTION_DOT":1.12e-6,"MEAN_MOTION_DDOT":0},{"OBJECT_NAME":"ONEWEB-0667","OBJECT_ID":"2023-029AH","EPOCH":"2025-09-29T04:43:14.238048","MEAN_MOTION":13.20772118,"ECCENTRICITY":0.00016366,"INCLINATION":87.9251,"RA_OF_ASC_NODE":326.4596,"ARG_OF_PERICENTER":92.8759,"MEAN_ANOMALY":267.2561,"EPHEMERIS_TYPE":0,"CLASSIFICATION_TYPE":"U","NORAD_CAT_ID":55827,"ELEMENT_SET_NO":999,"REV_AT_EPOCH":12669,"BSTAR":6.426762e-6,"MEAN_MOTION_DOT":1.6e-7,"MEAN_MOTION_DDOT":0},{"OBJECT_NAME":"ONEWEB-0669","OBJECT_ID":"2023-029AJ","EPOCH":"2025-09-29T15:30:58.362048","MEAN_MOTION":13.20771518,"ECCENTRICITY":0.0002183,"INCLINATION":87.9248,"RA_OF_ASC_NODE":326.4098,"ARG_OF_PERICENTER":78.1543,"MEAN_ANOMALY":281.9835,"EPHEMERIS_TYPE":0,"CLASSIFICATION_TYPE":"U","NORAD_CAT_ID":55828,"ELEMENT_SET_NO":999,"REV_AT_EPOCH":12675,"BSTAR":0.00030995,"MEAN_MOTION_DOT":1.39e-6,"MEAN_MOTION_DDOT":0},{"OBJECT_NAME":"ONEWEB-0670","OBJECT_ID":"2023-029AK","EPOCH":"2025-09-29T17:41:35.726784","MEAN_MOTION":13.14505309,"ECCENTRICITY":0.0001481,"INCLINATION":87.9074,"RA_OF_ASC_NODE":341.6229,"ARG_OF_PERICENTER":87.9021,"MEAN_ANOMALY":272.2278,"EPHEMERIS_TYPE":0,"CLASSIFICATION_TYPE":"U","NORAD_CAT_ID":55829,"ELEMENT_SET_NO":999,"REV_AT_EPOCH":12521,"BSTAR":0.00047683,"MEAN_MOTION_DOT":1.9e-6,"MEAN_MOTION_DDOT":0},{"OBJECT_NAME":"ONEWEB-0671","OBJECT_ID":"2023-029AL","EPOCH":"2025-09-29T18:49:35.806080","MEAN_MOTION":13.19725501,"ECCENTRICITY":0.0001603,"INCLINATION":87.9275,"RA_OF_ASC_NODE":356.7757,"ARG_OF_PERICENTER":96.9471,"MEAN_ANOMALY":263.1844,"EPHEMERIS_TYPE":0,"CLASSIFICATION_TYPE":"U","NORAD_CAT_ID":55830,"ELEMENT_SET_NO":999,"REV_AT_EPOCH":12455,"BSTAR":0.00018798,"MEAN_MOTION_DOT":8.8e-7,"MEAN_MOTION_DDOT":0},{"OBJECT_NAME":"ONEWEB-0672","OBJECT_ID":"2023-029AM","EPOCH":"2025-09-29T15:24:08.641152","MEAN_MOTION":13.20771012,"ECCENTRICITY":0.0002132,"INCLINATION":87.9243,"RA_OF_ASC_NODE":326.3932,"ARG_OF_PERICENTER":93.8115,"MEAN_ANOMALY":266.3262,"EPHEMERIS_TYPE":0,"CLASSIFICATION_TYPE":"U","NORAD_CAT_ID":55831,"ELEMENT_SET_NO":999,"REV_AT_EPOCH":12675,"BSTAR":0.00029408,"MEAN_MOTION_DOT":1.33e-6,"MEAN_MOTION_DDOT":0},{"OBJECT_NAME":"ONEWEB-0673","OBJECT_ID":"2023-029AN","EPOCH":"2025-09-29T18:15:29.036736","MEAN_MOTION":13.19726383,"ECCENTRICITY":0.0001783,"INCLINATION":87.9294,"RA_OF_ASC_NODE":356.7487,"ARG_OF_PERICENTER":107.5593,"MEAN_ANOMALY":252.5735,"EPHEMERIS_TYPE":0,"CLASSIFICATION_TYPE":"U","NORAD_CAT_ID":55832,"ELEMENT_SET_NO":999,"REV_AT_EPOCH":12455,"BSTAR":0.00011134,"MEAN_MOTION_DOT":5.8e-7,"MEAN_MOTION_DDOT":0},{"OBJECT_NAME":"ONEWEB-0674","OBJECT_ID":"2023-029AP","EPOCH":"2025-09-29T15:06:20.090016","MEAN_MOTION":13.14502906,"ECCENTRICITY":0.000147,"INCLINATION":87.9068,"RA_OF_ASC_NODE":341.6268,"ARG_OF_PERICENTER":85.7181,"MEAN_ANOMALY":274.4117,"EPHEMERIS_TYPE":0,"CLASSIFICATION_TYPE":"U","NORAD_CAT_ID":55833,"ELEMENT_SET_NO":999,"REV_AT_EPOCH":12518,"BSTAR":0.00030911,"MEAN_MOTION_DOT":1.27e-6,"MEAN_MOTION_DDOT":0},{"OBJECT_NAME":"ONEWEB-0675","OBJECT_ID":"2023-029AQ","EPOCH":"2025-09-29T18:38:13.933824","MEAN_MOTION":13.19727294,"ECCENTRICITY":0.0002121,"INCLINATION":87.9277,"RA_OF_ASC_NODE":356.7873,"ARG_OF_PERICENTER":105.3644,"MEAN_ANOMALY":254.7723,"EPHEMERIS_TYPE":0,"CLASSIFICATION_TYPE":"U","NORAD_CAT_ID":55834,"ELEMENT_SET_NO":999,"REV_AT_EPOCH":12457,"BSTAR":0.00026587,"MEAN_MOTION_DOT":1.19e-6,"MEAN_MOTION_DDOT":0}]
